CIC_OEM_VERS = 2.0
ORIGINATOR   = C²ERES
Date         = 08-August-2016 18:10:48

TARGET_NAME  = URANUS
TARGET_ID    = OBJECT-uranus

CENTER_NAME  = SUN
REF_FRAME    = ECLIPTICJ2000
TIME_SYSTEM  = UTC

META_START

COLUMN #01   : Day of the date in (MJD)
COLUMN #02   : Fractional seconds in the day (in seconds)
COLUMN #03   : Latitude  of the target body (in degree)
COLUMN #04   : Longitude of the target body (in degree)
COLUMN #05   : The radii of the target body (in km)

META_STOP

58626	61986.1593783	0.488856023022	-145.994309596	3101945576.87	
58626	61986.1593783	0.488985415094	-145.984030145	3101658409.2	
58626	83586.1593783	0.488224783944	-145.972168616	3101685801.54	
58627	18786.1593783	0.482191115934	-145.955479558	3101868260.51	
58627	40386.1593783	0.476159527241	-145.938810525	3102048049.57	
58627	61986.1593783	0.470130235675	-145.922166712	3102225621.88	
58627	83586.1593783	0.464102743702	-145.905548474	3102401093.28	
58628	18786.1593783	0.458076885354	-145.888955792	3102574514.65	
58628	40386.1593783	0.452052622891	-145.872388612	3102745918.81	
58628	61986.1593783	0.446029971686	-145.855846873	3102915331.81	
58628	83586.1593783	0.44000897173	-145.839330518	3103082776.6	
58629	18786.1593783	0.433989675343	-145.822839493	3103248274.44	
58629	40386.1593783	0.427972141271	-145.806373742	3103411845.57	
58629	61986.1593783	0.421956431589	-145.789933211	3103573509.51	
58629	83586.1593783	0.415942609965	-145.773517846	3103733285.31	
58630	18786.1593783	0.409930740635	-145.757127592	3103891191.56	
58630	40386.1593783	0.403920887772	-145.740762394	3104047246.55	
58630	61986.1593783	0.397913115081	-145.724422197	3104201468.24	
58630	83586.1593783	0.391907485543	-145.708106942	3104353874.35	
58631	18786.1593783	0.385904061242	-145.691816574	3104504482.33	
58631	40386.1593783	0.37990290325	-145.675551033	3104653309.41	
58631	61986.1593783	0.373904071553	-145.659310262	3104800372.59	
58631	83586.1593783	0.367907625003	-145.643094199	3104945688.66	
58632	18786.1593783	0.36191362129	-145.626902786	3105089274.23	
58632	40386.1593783	0.355922116922	-145.610735961	3105231145.66	
58632	61986.1593783	0.349933167221	-145.594593662	3105371319.17	
58632	83586.1593783	0.343946826324	-145.578475826	3105509810.77	
58633	18786.1593783	0.337963147184	-145.56238239	3105646636.26	
58633	40386.1593783	0.331982181585	-145.54631329	3105781811.31	
58633	61986.1593783	0.326003980147	-145.530268461	3105915351.37	
58633	83586.1593783	0.320028592346	-145.514247839	3106047271.74	
58634	18786.1593783	0.314056066525	-145.498251358	3106177587.52	
58634	40386.1593783	0.308086449913	-145.482278951	3106306313.67	
58634	61986.1593783	0.302119788639	-145.466330551	3106433464.97	
58634	83586.1593783	0.296156127756	-145.450406092	3106559056.02	
58635	18786.1593783	0.290195511251	-145.434505504	3106683101.29	
58635	40386.1593783	0.284237982072	-145.418628721	3106805615.06	
58635	61986.1593783	0.27828358214	-145.402775673	3106926611.47	
58635	83586.1593783	0.272332352368	-145.38694629	3107046104.49	
58636	18786.1593783	0.266384332687	-145.371140505	3107164107.94	
58636	40386.1593783	0.260439562053	-145.355358245	3107280635.5	
58636	61986.1593783	0.254498078475	-145.339599442	3107395700.67	
58636	83586.1593783	0.248559919028	-145.323864025	3107509316.84	
58637	18786.1593783	0.242625119873	-145.308151923	3107621497.23	
58637	40386.1593783	0.236693716274	-145.292463063	3107732254.92	
58637	61986.1593783	0.230765742614	-145.276797376	3107841602.83	
58637	83586.1593783	0.224841232417	-145.261154789	3107949553.77	
58638	18786.1593783	0.21892021836	-145.245535231	3108056120.39	
58638	40386.1593783	0.21300273229	-145.229938628	3108161315.2	
58638	61986.1593783	0.207088805245	-145.21436491	3108265150.6	
58638	83586.1593783	0.201178467465	-145.198814002	3108367638.82	
58639	18786.1593783	0.195271748411	-145.183285833	3108468791.97	
58639	40386.1593783	0.189368676778	-145.167780329	3108568622.05	
58639	61986.1593783	0.183469280514	-145.152297417	3108667140.89	
58639	83586.1593783	0.177573586832	-145.136837025	3108764360.23	
58640	18786.1593783	0.171681622226	-145.121399079	3108860291.67	
58640	40386.1593783	0.165793412484	-145.105983505	3108954946.67	
58640	61986.1593783	0.159908982704	-145.09059023	3109048336.59	
58640	83586.1593783	0.154028357308	-145.075219181	3109140472.65	
58641	18786.1593783	0.148151560055	-145.059870284	3109231365.97	
58641	40386.1593783	0.142278614054	-145.044543466	3109321027.52	
